CCSDS_OMM_VERS = 2.0
CREATION_DATE  = 
ORIGINATOR     = 

OBJECT_NAME    = ISS (ZARYA)
OBJECT_ID      = 1998-067A
CENTER_NAME    = EARTH
REF_FRAME      = TEME
TIME_SYSTEM    = UTC
MEAN_ELEMENT_THEORY = SGP/SGP4

EPOCH          = 2026-03-28T11:41:48.111360
MEAN_MOTION    = 15.48607800
ECCENTRICITY   = .0006231
INCLINATION    = 51.6344
RA_OF_ASC_NODE = 339.4313
ARG_OF_PERICENTER = 242.6596
MEAN_ANOMALY   = 117.3758

EPHEMERIS_TYPE = 0
CLASSIFICATION_TYPE = U
NORAD_CAT_ID   = 25544
ELEMENT_SET_NO = 999
REV_AT_EPOCH   = 55924
BSTAR          = .22419E-3
MEAN_MOTION_DOT = .11758E-3
MEAN_MOTION_DDOT = 0

CCSDS_OMM_VERS = 2.0
CREATION_DATE  = 
ORIGINATOR     = 

OBJECT_NAME    = POISK
OBJECT_ID      = 2009-060A
CENTER_NAME    = EARTH
REF_FRAME      = TEME
TIME_SYSTEM    = UTC
MEAN_ELEMENT_THEORY = SGP/SGP4

EPOCH          = 2026-03-28T11:41:48.111360
MEAN_MOTION    = 15.48607800
ECCENTRICITY   = .0006231
INCLINATION    = 51.6344
RA_OF_ASC_NODE = 339.4313
ARG_OF_PERICENTER = 242.6596
MEAN_ANOMALY   = 117.3758

EPHEMERIS_TYPE = 0
CLASSIFICATION_TYPE = U
NORAD_CAT_ID   = 36086
ELEMENT_SET_NO = 999
REV_AT_EPOCH   = 55904
BSTAR          = .22419E-3
MEAN_MOTION_DOT = .11758E-3
MEAN_MOTION_DDOT = 0

CCSDS_OMM_VERS = 2.0
CREATION_DATE  = 
ORIGINATOR     = 

OBJECT_NAME    = CSS (TIANHE)
OBJECT_ID      = 2021-035A
CENTER_NAME    = EARTH
REF_FRAME      = TEME
TIME_SYSTEM    = UTC
MEAN_ELEMENT_THEORY = SGP/SGP4

EPOCH          = 2026-03-28T09:29:17.689632
MEAN_MOTION    = 15.61580461
ECCENTRICITY   = .0004058
INCLINATION    = 41.4669
RA_OF_ASC_NODE = 94.2614
ARG_OF_PERICENTER = 45.3760
MEAN_ANOMALY   = 314.7410

EPHEMERIS_TYPE = 0
CLASSIFICATION_TYPE = U
NORAD_CAT_ID   = 48274
ELEMENT_SET_NO = 999
REV_AT_EPOCH   = 28053
BSTAR          = .20488E-3
MEAN_MOTION_DOT = .17812E-3
MEAN_MOTION_DDOT = 0

CCSDS_OMM_VERS = 2.0
CREATION_DATE  = 
ORIGINATOR     = 

OBJECT_NAME    = ISS (NAUKA)
OBJECT_ID      = 2021-066A
CENTER_NAME    = EARTH
REF_FRAME      = TEME
TIME_SYSTEM    = UTC
MEAN_ELEMENT_THEORY = SGP/SGP4

EPOCH          = 2026-03-28T11:41:48.111360
MEAN_MOTION    = 15.48607800
ECCENTRICITY   = .0006231
INCLINATION    = 51.6344
RA_OF_ASC_NODE = 339.4313
ARG_OF_PERICENTER = 242.6596
MEAN_ANOMALY   = 117.3758

EPHEMERIS_TYPE = 0
CLASSIFICATION_TYPE = U
NORAD_CAT_ID   = 49044
ELEMENT_SET_NO = 999
REV_AT_EPOCH   = 55908
BSTAR          = .22419E-3
MEAN_MOTION_DOT = .11758E-3
MEAN_MOTION_DDOT = 0

CCSDS_OMM_VERS = 2.0
CREATION_DATE  = 
ORIGINATOR     = 

OBJECT_NAME    = FREGAT DEB
OBJECT_ID      = 2011-037PF
CENTER_NAME    = EARTH
REF_FRAME      = TEME
TIME_SYSTEM    = UTC
MEAN_ELEMENT_THEORY = SGP/SGP4

EPOCH          = 2026-03-28T10:58:46.054272
MEAN_MOTION    = 12.40739176
ECCENTRICITY   = .096108
INCLINATION    = 51.6446
RA_OF_ASC_NODE = 244.4001
ARG_OF_PERICENTER = 102.4503
MEAN_ANOMALY   = 268.5459

EPHEMERIS_TYPE = 0
CLASSIFICATION_TYPE = U
NORAD_CAT_ID   = 49271
ELEMENT_SET_NO = 999
REV_AT_EPOCH   = 21502
BSTAR          = .14561E-1
MEAN_MOTION_DOT = .10214E-3
MEAN_MOTION_DDOT = 0

CCSDS_OMM_VERS = 2.0
CREATION_DATE  = 
ORIGINATOR     = 

OBJECT_NAME    = CSS (WENTIAN)
OBJECT_ID      = 2022-085A
CENTER_NAME    = EARTH
REF_FRAME      = TEME
TIME_SYSTEM    = UTC
MEAN_ELEMENT_THEORY = SGP/SGP4

EPOCH          = 2026-03-28T09:29:17.689632
MEAN_MOTION    = 15.61580461
ECCENTRICITY   = .0004058
INCLINATION    = 41.4669
RA_OF_ASC_NODE = 94.2614
ARG_OF_PERICENTER = 45.3760
MEAN_ANOMALY   = 314.7410

EPHEMERIS_TYPE = 0
CLASSIFICATION_TYPE = U
NORAD_CAT_ID   = 53239
ELEMENT_SET_NO = 999
REV_AT_EPOCH   = 28067
BSTAR          = .20488E-3
MEAN_MOTION_DOT = .17812E-3
MEAN_MOTION_DDOT = 0

CCSDS_OMM_VERS = 2.0
CREATION_DATE  = 
ORIGINATOR     = 

OBJECT_NAME    = CSS (MENGTIAN)
OBJECT_ID      = 2022-143A
CENTER_NAME    = EARTH
REF_FRAME      = TEME
TIME_SYSTEM    = UTC
MEAN_ELEMENT_THEORY = SGP/SGP4

EPOCH          = 2026-03-28T09:29:17.689632
MEAN_MOTION    = 15.61580461
ECCENTRICITY   = .0004058
INCLINATION    = 41.4669
RA_OF_ASC_NODE = 94.2614
ARG_OF_PERICENTER = 45.3760
MEAN_ANOMALY   = 314.7410

EPHEMERIS_TYPE = 0
CLASSIFICATION_TYPE = U
NORAD_CAT_ID   = 54216
ELEMENT_SET_NO = 999
REV_AT_EPOCH   = 28067
BSTAR          = .20488E-3
MEAN_MOTION_DOT = .17812E-3
MEAN_MOTION_DDOT = 0

CCSDS_OMM_VERS = 2.0
CREATION_DATE  = 
ORIGINATOR     = 

OBJECT_NAME    = TIANZHOU-9
OBJECT_ID      = 2025-149A
CENTER_NAME    = EARTH
REF_FRAME      = TEME
TIME_SYSTEM    = UTC
MEAN_ELEMENT_THEORY = SGP/SGP4

EPOCH          = 2026-03-28T09:29:17.689632
MEAN_MOTION    = 15.61580461
ECCENTRICITY   = .0004058
INCLINATION    = 41.4669
RA_OF_ASC_NODE = 94.2614
ARG_OF_PERICENTER = 45.3760
MEAN_ANOMALY   = 314.7410

EPHEMERIS_TYPE = 0
CLASSIFICATION_TYPE = U
NORAD_CAT_ID   = 64786
ELEMENT_SET_NO = 999
REV_AT_EPOCH   = 28067
BSTAR          = .20488E-3
MEAN_MOTION_DOT = .17812E-3
MEAN_MOTION_DDOT = 0

CCSDS_OMM_VERS = 2.0
CREATION_DATE  = 
ORIGINATOR     = 

OBJECT_NAME    = PROGRESS-MS 32
OBJECT_ID      = 2025-204A
CENTER_NAME    = EARTH
REF_FRAME      = TEME
TIME_SYSTEM    = UTC
MEAN_ELEMENT_THEORY = SGP/SGP4

EPOCH          = 2026-03-28T03:57:10.438560
MEAN_MOTION    = 15.48601072
ECCENTRICITY   = .00062264
INCLINATION    = 51.6345
RA_OF_ASC_NODE = 341.0267
ARG_OF_PERICENTER = 240.9881
MEAN_ANOMALY   = 119.0483

EPHEMERIS_TYPE = 0
CLASSIFICATION_TYPE = U
NORAD_CAT_ID   = 65586
ELEMENT_SET_NO = 999
REV_AT_EPOCH   = 55450
BSTAR          = .24002995E-3
MEAN_MOTION_DOT = .12619E-3
MEAN_MOTION_DDOT = 0

CCSDS_OMM_VERS = 2.0
CREATION_DATE  = 
ORIGINATOR     = 

OBJECT_NAME    = YOTSUBA-KULOVER
OBJECT_ID      = 1998-067XN
CENTER_NAME    = EARTH
REF_FRAME      = TEME
TIME_SYSTEM    = UTC
MEAN_ELEMENT_THEORY = SGP/SGP4

EPOCH          = 2026-03-28T08:44:31.740864
MEAN_MOTION    = 15.91004728
ECCENTRICITY   = .0005769
INCLINATION    = 51.6179
RA_OF_ASC_NODE = 319.7441
ARG_OF_PERICENTER = 210.8649
MEAN_ANOMALY   = 149.2018

EPHEMERIS_TYPE = 0
CLASSIFICATION_TYPE = U
NORAD_CAT_ID   = 65941
ELEMENT_SET_NO = 999
REV_AT_EPOCH   = 2646
BSTAR          = .12346E-2
MEAN_MOTION_DOT = .396503E-2
MEAN_MOTION_DDOT = .70388E-4

CCSDS_OMM_VERS = 2.0
CREATION_DATE  = 
ORIGINATOR     = 

OBJECT_NAME    = BOTAN
OBJECT_ID      = 1998-067XQ
CENTER_NAME    = EARTH
REF_FRAME      = TEME
TIME_SYSTEM    = UTC
MEAN_ELEMENT_THEORY = SGP/SGP4

EPOCH          = 2026-03-27T22:26:51.037152
MEAN_MOTION    = 15.89793080
ECCENTRICITY   = .000613
INCLINATION    = 51.6220
RA_OF_ASC_NODE = 322.1560
ARG_OF_PERICENTER = 203.7870
MEAN_ANOMALY   = 156.2853

EPHEMERIS_TYPE = 0
CLASSIFICATION_TYPE = U
NORAD_CAT_ID   = 65943
ELEMENT_SET_NO = 999
REV_AT_EPOCH   = 2639
BSTAR          = .11002E-2
MEAN_MOTION_DOT = .331706E-2
MEAN_MOTION_DDOT = .51569E-4

CCSDS_OMM_VERS = 2.0
CREATION_DATE  = 
ORIGINATOR     = 

OBJECT_NAME    = HRC MONOBLOCK CAMERA
OBJECT_ID      = 1998-067XR
CENTER_NAME    = EARTH
REF_FRAME      = TEME
TIME_SYSTEM    = UTC
MEAN_ELEMENT_THEORY = SGP/SGP4

EPOCH          = 2026-03-28T02:41:06.656640
MEAN_MOTION    = 15.64137468
ECCENTRICITY   = .00038276
INCLINATION    = 51.6287
RA_OF_ASC_NODE = 332.4212
ARG_OF_PERICENTER = 178.5608
MEAN_ANOMALY   = 181.5399

EPHEMERIS_TYPE = 0
CLASSIFICATION_TYPE = U
NORAD_CAT_ID   = 66052
ELEMENT_SET_NO = 999
REV_AT_EPOCH   = 2527
BSTAR          = .58101204E-3
MEAN_MOTION_DOT = .56107E-3
MEAN_MOTION_DDOT = 0

