ISS (ZARYA)             
1 25544U 98067A   26087.48736240  .00011758  00000+0  22419-3 0  9999
2 25544  51.6344 339.4313 0006231 242.6596 117.3758 15.48607800559243
POISK                   
1 36086U 09060A   26087.48736240  .00011758  00000+0  22419-3 0  9997
2 36086  51.6344 339.4313 0006231 242.6596 117.3758 15.48607800559044
CSS (TIANHE)            
1 48274U 21035A   26087.39534363  .00017812  00000+0  20488-3 0  9998
2 48274  41.4669  94.2614 0004058  45.3760 314.7410 15.61580461280530
ISS (NAUKA)             
1 49044U 21066A   26087.48736240  .00011758  00000+0  22419-3 0  9995
2 49044  51.6344 339.4313 0006231 242.6596 117.3758 15.48607800559086
FREGAT DEB              
1 49271U 11037PF  26087.45747748  .00010214  00000+0  14561-1 0  9999
2 49271  51.6446 244.4001 0961080 102.4503 268.5459 12.40739176215024
CSS (WENTIAN)           
1 53239U 22085A   26087.39534363  .00017812  00000+0  20488-3 0  9991
2 53239  41.4669  94.2614 0004058  45.3760 314.7410 15.61580461280672
CSS (MENGTIAN)          
1 54216U 22143A   26087.39534363  .00017812  00000+0  20488-3 0  9992
2 54216  41.4669  94.2614 0004058  45.3760 314.7410 15.61580461280678
TIANZHOU-9              
1 64786U 25149A   26087.39534363  .00017812  00000+0  20488-3 0  9994
2 64786  41.4669  94.2614 0004058  45.3760 314.7410 15.61580461280671
PROGRESS-MS 32          
1 65586U 25204A   26087.16470415  .00012619  00000+0  24003-3 0  9994
2 65586  51.6345 341.0267 0006226 240.9881 119.0483 15.48601072554506
YOTSUBA-KULOVER         
1 65941U 98067XN  26087.36425626  .00396503  70388-4  12346-2 0  9996
2 65941  51.6179 319.7441 0005769 210.8649 149.2018 15.91004728 26462
BOTAN                   
1 65943U 98067XQ  26086.93531293  .00331706  51569-4  11002-2 0  9990
2 65943  51.6220 322.1560 0006130 203.7870 156.2853 15.89793080 26391
HRC MONOBLOCK CAMERA    
1 66052U 98067XR  26087.11188260  .00056107  00000+0  58101-3 0  9995
2 66052  51.6287 332.4212 0003827 178.5608 181.5399 15.64137468 25279
